*******************************************************************************
Ephemeris / WWW_USER Fri Mar  7 11:07:22 2025 Pasadena, USA      / Horizons    
*******************************************************************************
Target body name: (2018 US2)                      {source: JPL#14}
Center body name: Earth (399)                     {source: DE441}
Center-site name: Mauna Kea
*******************************************************************************
Start time      : A.D. 2018-Nov-22 03:51:00.0000 UT      
Stop  time      : A.D. 2018-Nov-22 16:25:00.0000 UT      
Step-size       : 1 minutes
*******************************************************************************
Target pole/equ : undefined
Target radii    : undefined                                                    
Center geodetic : 204.5278, 19.8260847, 4.21024   {E-lon(deg),Lat(deg),Alt(km)}
Center cylindric: 204.5278, 6006.35451, 2151.0229 {E-lon(deg),Dxy(km),Dz(km)}
Center pole/equ : ITRF93                          {East-longitude positive}
Center radii    : 6378.137, 6378.137, 6356.752 km {Equator_a, b, pole_c}       
Target primary  : Sun
Vis. interferer : MOON (R_eq= 1737.400) km        {source: DE441}
Rel. light bend : Sun                             {source: DE441}
Rel. lght bnd GM: 1.3271E+11 km^3/s^2                                          
Small-body perts: Yes                             {source: SB441-N16}
Atmos refraction: NO (AIRLESS)
RA format       : HMS
Time format     : CAL 
Calendar mode   : Mixed Julian/Gregorian
RTS-only print  : NO       
EOP file        : eop.250306.p250602                                           
EOP coverage    : DATA-BASED 1962-JAN-20 TO 2025-MAR-06. PREDICTS-> 2025-JUN-01
Units conversion: 1 au= 149597870.700 km, c= 299792.458 km/s, 1 day= 86400.0 s 
Table cut-offs 1: Elevation (-90.0deg=NO ),Airmass (>38.000=NO), Daylight (YES)
Table cut-offs 2: Solar elongation (  0.0,180.0=NO ),Local Hour Angle( 0.0=NO )
Table cut-offs 3: RA/DEC angular rate (     0.0=NO )                           
*******************************************************************************
Initial IAU76/J2000 heliocentric ecliptic osculating elements (au, days, deg.):
  EPOCH=  2458424.5 ! 2018-Nov-02.00 (TDB)         Residual RMS= .2503         
   EC= .6580934192644969   QR= 1.019516546973241   TP= 2458405.4003266119      
   OM= 225.9089147719754   W=  151.3321843630243   IN= 7.044798776353047       
  Equivalent ICRF heliocentric cartesian coordinates (au, au/d):
   X= 8.026033061055595E-01  Y= 6.200562709856074E-01  Z= 2.826199844552283E-01
  VX=-1.102263624249032E-02 VY= 1.780430100977025E-02 VZ= 4.937770740848229E-03
Asteroid physical parameters (km, seconds, rotational period in hours):        
   GM= n.a.                RAD= n.a.               ROTPER= n.a.                
   H= 24.88                G= .150                 B-V= n.a.                   
                           ALBEDO= n.a.            STYP= n.a.                  
*******************************************************************************
 Date__(UT)__HR:MN     R.A._________(ICRF)_________DEC
******************************************************
$$SOE
 2018-Nov-22 16:09 Nm  04 58 56.081775 +09 26 29.75518
 2018-Nov-22 16:10 Nm  04 58 56.117072 +09 26 28.89228
 2018-Nov-22 16:11 Nm  04 58 56.152424 +09 26 28.02940
 2018-Nov-22 16:12 Cm  04 58 56.187832 +09 26 27.16653
 2018-Nov-22 16:13 C   04 58 56.223296 +09 26 26.30368
 2018-Nov-22 16:14 C   04 58 56.258815 +09 26 25.44085
 2018-Nov-22 16:15 C   04 58 56.294391 +09 26 24.57804
 2018-Nov-22 16:16 C   04 58 56.330023 +09 26 23.71524
 2018-Nov-22 16:17 C   04 58 56.365711 +09 26 22.85247
 2018-Nov-22 16:18 C   04 58 56.401456 +09 26 21.98972
 2018-Nov-22 16:19 C   04 58 56.437256 +09 26 21.12699
 2018-Nov-22 16:20 C   04 58 56.473113 +09 26 20.26428
 2018-Nov-22 16:21 C   04 58 56.509027 +09 26 19.40160
 2018-Nov-22 16:22 C   04 58 56.544997 +09 26 18.53893
 2018-Nov-22 16:23 C   04 58 56.581023 +09 26 17.67630
 2018-Nov-22 16:24 C   04 58 56.617106 +09 26 16.81368
 2018-Nov-22 16:25 C   04 58 56.653246 +09 26 15.95110
